OBJECT_NAME,OBJECT_ID,EPOCH,MEAN_MOTION,ECCENTRICITY,INCLINATION,RA_OF_ASC_NODE,ARG_OF_PERICENTER,MEAN_ANOMALY,EPHEMERIS_TYPE,CLASSIFICATION_TYPE,NORAD_CAT_ID,ELEMENT_SET_NO,REV_AT_EPOCH,BSTAR,MEAN_MOTION_DOT,MEAN_MOTION_DDOT
STARLINK-30401,2023-138L,2024-07-11T14:17:30.662592,15.02535499,.0001031,43.0032,289.4268,267.4286,92.6438,0,U,57818,999,4744,.5266E-4,.508E-5,0
STARLINK-30390,2023-138M,2024-07-11T09:25:32.403360,15.02536879,.0001273,43.0030,290.4860,260.9350,99.1348,0,U,57819,999,4745,.50363E-4,.477E-5,0
STARLINK-30409,2023-138N,2024-07-11T07:30:37.501920,15.02535589,.0001391,43.0053,290.7288,267.6932,92.3751,0,U,57820,999,4744,.90016E-4,.1012E-4,0
STARLINK-30415,2023-138P,2024-07-11T13:59:56.237856,15.02532916,.0002065,43.0045,289.3316,275.8124,84.2483,0,U,57821,999,4754,.10197E-3,.1174E-4,0
STARLINK-30417,2023-138Q,2024-07-11T13:24:29.532960,15.40286361,.0032387,42.9885,263.5530,34.3817,325.9127,0,U,57822,999,4773,.48222E-2,.207412E-2,0
STARLINK-30407,2023-138R,2024-07-11T10:51:39.719520,15.02543534,.000115,43.0042,290.0641,268.5701,91.5010,0,U,57823,999,4751,.95431E-4,.1086E-4,0
STARLINK-30408,2023-138S,2024-07-11T07:35:25.465344,15.02537043,.0001423,43.0044,290.7731,268.6803,91.3876,0,U,57824,999,4749,.10479E-3,.1212E-4,0
STARLINK-30377,2023-138T,2024-07-11T07:11:26.564928,15.02545674,.0001252,43.0033,290.6485,266.4988,93.5711,0,U,57825,999,4739,.26557E-4,.155E-5,0
STARLINK-30422,2023-138U,2024-07-11T07:16:14.436768,15.02536908,.0001331,43.0035,290.6724,275.2181,84.8509,0,U,57826,999,4749,.20771E-3,.2603E-4,0
STARLINK-30402,2023-138V,2024-07-11T07:22:38.078688,15.02537061,.0001508,43.0055,290.7008,268.8930,91.1740,0,U,57827,999,4749,.72126E-4,.771E-5,0
STARLINK-30411,2023-138W,2024-07-11T05:50:06.158112,15.02536712,.0001537,43.0047,291.0576,272.6654,87.4012,0,U,57828,999,4742,.11326E-3,.1327E-4,0
STARLINK-30418,2023-138X,2024-07-11T11:53:50.705664,15.02536008,.0001288,43.0047,289.5403,266.9942,93.0753,0,U,57829,999,4736,.54625E-4,.534E-5,0
YAOGAN-40 01A,2023-139A,2024-07-11T13:37:58.584288,14.12110182,.0001938,85.9915,216.4260,93.5985,266.5419,0,U,57830,999,4310,.87789E-4,.18E-5,0
YAOGAN-40 01B,2023-139C,2024-07-11T13:38:12.230304,14.12111374,.0002033,85.9914,216.4197,95.5660,264.5755,0,U,57832,999,4311,.11493E-3,.229E-5,0
YAOGAN-40 01C,2023-139D,2024-07-11T13:38:04.667712,14.12112664,.0002401,85.9918,215.6737,101.2194,258.9259,0,U,57833,999,4321,.11693E-3,.233E-5,0
STARLINK-30285,2023-141A,2024-07-11T11:28:36.808320,15.28034606,.0001349,53.1704,221.3472,88.1272,271.9882,0,U,57840,999,4749,.67787E-4,.1528E-4,0
STARLINK-30410,2023-141B,2024-07-11T11:08:59.140896,15.28032826,.0001474,53.1764,221.7477,92.1909,267.9259,0,U,57841,999,4748,.11802E-3,.2921E-4,0
STARLINK-30435,2023-141C,2024-07-11T11:02:16.027008,15.28028629,.0001426,53.1730,221.7712,147.4718,212.6370,0,U,57842,999,4748,-.17323E-3,-.5147E-4,0
STARLINK-30423,2023-141D,2024-07-11T10:48:17.357760,15.28029056,.0001312,53.1615,221.6928,98.4873,261.6275,0,U,57843,999,4748,.23276E-3,.6103E-4,0
STARLINK-30292,2023-141E,2024-07-11T13:30:22.711968,15.28018973,.0000868,53.1608,221.8967,76.8652,283.2444,0,U,57844,999,4749,-.61563E-4,-.2055E-4,0
STARLINK-30419,2023-141F,2024-07-11T08:01:35.477760,15.28016461,.0001519,53.1200,205.4049,100.5728,259.5442,0,U,57845,999,4769,.88023E-4,.2088E-4,0
STARLINK-30420,2023-141G,2024-07-11T10:47:13.751808,15.28014117,.0001369,53.1412,218.7407,84.2767,275.8389,0,U,57846,999,4752,-.41506E-5,-.466E-5,0
STARLINK-30416,2023-141H,2024-07-11T11:21:51.927552,15.28023583,.000137,53.1620,221.3064,96.0612,264.0544,0,U,57847,999,4749,.15352E-4,.74E-6,0
STARLINK-30426,2023-141J,2024-07-11T09:00:36.861696,15.28026995,.000132,53.1624,221.9068,102.5430,257.5717,0,U,57848,999,4747,.66166E-4,.1483E-4,0
STARLINK-30430,2023-141K,2024-07-11T08:13:59.157984,15.28024334,.0001356,53.1634,221.9506,88.5384,271.5771,0,U,57849,999,4747,.73534E-4,.1687E-4,0
STARLINK-30425,2023-141L,2024-07-11T08:53:52.478592,15.28024688,.0001158,53.1673,221.8751,94.5169,265.5963,0,U,57850,999,4747,.80482E-4,.1879E-4,0
STARLINK-30405,2023-141M,2024-07-11T10:48:40.480128,15.28015679,.0001357,53.1630,221.1520,94.7259,265.3896,0,U,57851,999,4749,.28405E-4,.436E-5,0
STARLINK-30431,2023-141N,2024-07-11T09:08:01.794048,15.28024134,.0001242,53.1639,222.8912,100.1760,259.9380,0,U,57852,999,4746,.44582E-4,.884E-5,0
STARLINK-30404,2023-141P,2024-07-11T09:08:30.324192,15.28024374,.0001158,53.1609,222.8989,93.3733,266.7399,0,U,57853,999,4746,.20689E-4,.222E-5,0
STARLINK-30412,2023-141Q,2024-07-11T09:01:17.528448,15.28019040,.0001385,53.1620,222.8688,96.8403,263.2754,0,U,57854,999,4746,.72849E-4,.1667E-4,0
