STARLINK-30401          
1 57818U 23138L   24193.59549378  .00000508  00000+0  52660-4 0  9990
2 57818  43.0032 289.4268 0001031 267.4286  92.6438 15.02535499 47446
STARLINK-30390          
1 57819U 23138M   24193.39273615  .00000477  00000+0  50363-4 0  9990
2 57819  43.0030 290.4860 0001273 260.9350  99.1348 15.02536879 47459
STARLINK-30409          
1 57820U 23138N   24193.31293405  .00001012  00000+0  90016-4 0  9998
2 57820  43.0053 290.7288 0001391 267.6932  92.3751 15.02535589 47443
STARLINK-30415          
1 57821U 23138P   24193.58328979  .00001174  00000+0  10197-3 0  9993
2 57821  43.0045 289.3316 0002065 275.8124  84.2483 15.02532916 47548
STARLINK-30417          
1 57822U 23138Q   24193.55867515  .00207412  00000+0  48222-2 0  9997
2 57822  42.9885 263.5530 0032387  34.3817 325.9127 15.40286361 47731
STARLINK-30407          
1 57823U 23138R   24193.45254305  .00001086  00000+0  95431-4 0  9999
2 57823  43.0042 290.0641 0001150 268.5701  91.5010 15.02543534 47513
STARLINK-30408          
1 57824U 23138S   24193.31626696  .00001212  00000+0  10479-3 0  9990
2 57824  43.0044 290.7731 0001423 268.6803  91.3876 15.02537043 47493
STARLINK-30377          
1 57825U 23138T   24193.29961302  .00000155  00000+0  26557-4 0  9994
2 57825  43.0033 290.6485 0001252 266.4988  93.5711 15.02545674 47397
STARLINK-30422          
1 57826U 23138U   24193.30294487  .00002603  00000+0  20771-3 0  9991
2 57826  43.0035 290.6724 0001331 275.2181  84.8509 15.02536908 47496
STARLINK-30402          
1 57827U 23138V   24193.30738517  .00000771  00000+0  72126-4 0  9995
2 57827  43.0055 290.7008 0001508 268.8930  91.1740 15.02537061 47490
STARLINK-30411          
1 57828U 23138W   24193.24312683  .00001327  00000+0  11326-3 0  9993
2 57828  43.0047 291.0576 0001537 272.6654  87.4012 15.02536712 47429
STARLINK-30418          
1 57829U 23138X   24193.49572576  .00000534  00000+0  54625-4 0  9999
2 57829  43.0047 289.5403 0001288 266.9942  93.0753 15.02536008 47366
YAOGAN-40 01A           
1 57830U 23139A   24193.56803917  .00000180  00000+0  87789-4 0  9990
2 57830  85.9915 216.4260 0001938  93.5985 266.5419 14.12110182 43105
YAOGAN-40 01B           
1 57832U 23139C   24193.56819711  .00000229  00000+0  11493-3 0  9993
2 57832  85.9914 216.4197 0002033  95.5660 264.5755 14.12111374 43110
YAOGAN-40 01C           
1 57833U 23139D   24193.56810958  .00000233  00000+0  11693-3 0  9995
2 57833  85.9918 215.6737 0002401 101.2194 258.9259 14.12112664 43212
STARLINK-30285          
1 57840U 23141A   24193.47820380  .00001528  00000+0  67787-4 0  9990
2 57840  53.1704 221.3472 0001349  88.1272 271.9882 15.28034606 47498
STARLINK-30410          
1 57841U 23141B   24193.46457339  .00002921  00000+0  11802-3 0  9994
2 57841  53.1764 221.7477 0001474  92.1909 267.9259 15.28032826 47489
STARLINK-30435          
1 57842U 23141C   24193.45990772 -.00005147  00000+0 -17323-3 0  9996
2 57842  53.1730 221.7712 0001426 147.4718 212.6370 15.28028629 47481
STARLINK-30423          
1 57843U 23141D   24193.45020090  .00006103  00000+0  23276-3 0  9999
2 57843  53.1615 221.6928 0001312  98.4873 261.6275 15.28029056 47486
STARLINK-30292          
1 57844U 23141E   24193.56276287 -.00002055  00000+0 -61563-4 0  9999
2 57844  53.1608 221.8967 0000868  76.8652 283.2444 15.28018973 47499
STARLINK-30419          
1 57845U 23141F   24193.33443840  .00002088  00000+0  88023-4 0  9990
2 57845  53.1200 205.4049 0001519 100.5728 259.5442 15.28016461 47696
STARLINK-30420          
1 57846U 23141G   24193.44946472 -.00000466  00000+0 -41506-5 0  9998
2 57846  53.1412 218.7407 0001369  84.2767 275.8389 15.28014117 47520
STARLINK-30416          
1 57847U 23141H   24193.47351768  .00000074  00000+0  15352-4 0  9992
2 57847  53.1620 221.3064 0001370  96.0612 264.0544 15.28023583 47499
STARLINK-30426          
1 57848U 23141J   24193.37542664  .00001483  00000+0  66166-4 0  9993
2 57848  53.1624 221.9068 0001320 102.5430 257.5717 15.28026995 47477
STARLINK-30430          
1 57849U 23141K   24193.34304581  .00001687  00000+0  73534-4 0  9998
2 57849  53.1634 221.9506 0001356  88.5384 271.5771 15.28024334 47477
STARLINK-30425          
1 57850U 23141L   24193.37074628  .00001879  00000+0  80482-4 0  9992
2 57850  53.1673 221.8751 0001158  94.5169 265.5963 15.28024688 47479
STARLINK-30405          
1 57851U 23141M   24193.45046852  .00000436  00000+0  28405-4 0  9995
2 57851  53.1630 221.1520 0001357  94.7259 265.3896 15.28015679 47498
STARLINK-30431          
1 57852U 23141N   24193.38057632  .00000884  00000+0  44582-4 0  9997
2 57852  53.1639 222.8912 0001242 100.1760 259.9380 15.28024134 47463
STARLINK-30404          
1 57853U 23141P   24193.38090653  .00000222  00000+0  20689-4 0  9996
2 57853  53.1609 222.8989 0001158  93.3733 266.7399 15.28024374 47466
STARLINK-30412          
1 57854U 23141Q   24193.37589732  .00001667  00000+0  72849-4 0  9996
2 57854  53.1620 222.8688 0001385  96.8403 263.2754 15.28019040 47461
